{"type": "FeatureCollection", "features": [ {"type": "Feature", "properties": {"norad_id": 33867, "name": "IRIDIUM 33 DEB", "group": "iridium-33-debris", "lat": 54.431039298169544, "lon": 170.220281279856, "alt_km": 395.82291335505397, "timestamp": "2025-12-02T13:52:17.645907+00:00", "meta": {"OBJECT_NAME": "IRIDIUM 33 DEB", "OBJECT_ID": "1997-051AL", "EPOCH": "2025-12-02T00:57:38.470176", "MEAN_MOTION": 15.52551436, "ECCENTRICITY": 0.00117532, "INCLINATION": 86.3629, "RA_OF_ASC_NODE": 355.5967, "ARG_OF_PERICENTER": 101.8942, "MEAN_ANOMALY": 258.3637, "EPHEMERIS_TYPE": 0, "CLASSIFICATION_TYPE": "U", "NORAD_CAT_ID": 33867, "ELEMENT_SET_NO": 999, "REV_AT_EPOCH": 89344, "BSTAR": 0.0064552993, "MEAN_MOTION_DOT": 0.00417107, "MEAN_MOTION_DDOT": 0}, "tle": {"line1": "1 33867U 97051AL  25336.04002859  .00417107  00000+0  64553-2 0  9990", "line2": "2 33867  86.3629 355.5967 0011753 101.8942 258.3637 15.52551436893444"}}, "geometry": {"type": "Point", "coordinates": [170.220281279856, 54.431039298169544]}}, {"type": "Feature", "properties": {"norad_id": 33870, "name": "IRIDIUM 33 DEB", "group": "iridium-33-debris", "lat": 28.91079189311939, "lon": 64.62175740542577, "alt_km": 752.7602706785474, "timestamp": "2025-12-02T13:52:17.645918+00:00", "meta": {"OBJECT_NAME": "IRIDIUM 33 DEB", "OBJECT_ID": "1997-051AP", "EPOCH": "2025-12-02T07:23:19.616352", "MEAN_MOTION": 14.45752988, "ECCENTRICITY": 0.00203755, "INCLINATION": 86.3756, "RA_OF_ASC_NODE": 62.7314, "ARG_OF_PERICENTER": 212.9656, "MEAN_ANOMALY": 211.117, "EPHEMERIS_TYPE": 0, "CLASSIFICATION_TYPE": "U", "NORAD_CAT_ID": 33870, "ELEMENT_SET_NO": 999, "REV_AT_EPOCH": 87986, "BSTAR": 0.0011193325, "MEAN_MOTION_DOT": 3.994e-05, "MEAN_MOTION_DDOT": 0}, "tle": {"line1": "1 33870U 97051AP  25336.30786593  .00003994  00000+0  11193-2 0  9994", "line2": "2 33870  86.3756  62.7314 0020375 212.9656 211.1170 14.45752988879863"}}, "geometry": {"type": "Point", "coordinates": [64.62175740542577, 28.91079189311939]}}, {"type": "Feature", "properties": {"norad_id": 33881, "name": "IRIDIUM 33 DEB", "group": "iridium-33-debris", "lat": -49.61816696738207, "lon": -64.58342602580228, "alt_km": 672.1602695219908, "timestamp": "2025-12-02T13:52:17.645929+00:00", "meta": {"OBJECT_NAME": "IRIDIUM 33 DEB", "OBJECT_ID": "1997-051BA", "EPOCH": "2025-12-01T19:20:33.046656", "MEAN_MOTION": 14.56252651, "ECCENTRICITY": 0.00610429, "INCLINATION": 86.3869, "RA_OF_ASC_NODE": 111.4914, "ARG_OF_PERICENTER": 210.0929, "MEAN_ANOMALY": 294.4565, "EPHEMERIS_TYPE": 0, "CLASSIFICATION_TYPE": "U", "NORAD_CAT_ID": 33881, "ELEMENT_SET_NO": 999, "REV_AT_EPOCH": 87341, "BSTAR": 0.0018925241, "MEAN_MOTION_DOT": 8.609e-05, "MEAN_MOTION_DDOT": 0}, "tle": {"line1": "1 33881U 97051BA  25335.80593804  .00008609  00000+0  18925-2 0  9999", "line2": "2 33881  86.3869 111.4914 0061042 210.0929 294.4565 14.56252651873417"}}, "geometry": {"type": "Point", "coordinates": [-64.58342602580228, -49.61816696738207]}}, {"type": "Feature", "properties": {"norad_id": 33884, "name": "IRIDIUM 33 DEB", "group": "iridium-33-debris", "lat": 45.26119607374306, "lon": -169.26803798109492, "alt_km": 639.8742586198268, "timestamp": "2025-12-02T13:52:17.645940+00:00", "meta": {"OBJECT_NAME": "IRIDIUM 33 DEB", "OBJECT_ID": "1997-051BD", "EPOCH": "2025-12-02T03:46:50.889216", "MEAN_MOTION": 14.77106911, "ECCENTRICITY": 0.00108058, "INCLINATION": 86.3703, "RA_OF_ASC_NODE": 14.5944, "ARG_OF_PERICENTER": 2.5334, "MEAN_ANOMALY": 57.6114, "EPHEMERIS_TYPE": 0, "CLASSIFICATION_TYPE": "U", "NORAD_CAT_ID": 33884, "ELEMENT_SET_NO": 999, "REV_AT_EPOCH": 88691, "BSTAR": 0.0014763479, "MEAN_MOTION_DOT": 0.00010468, "MEAN_MOTION_DDOT": 0}, "tle": {"line1": "1 33884U 97051BD  25336.15753344  .00010468  00000+0  14763-2 0  9990", "line2": "2 33884  86.3703  14.5944 0010805   2.5334  57.6114 14.77106911886916"}}, "geometry": {"type": "Point", "coordinates": [-169.26803798109492, 45.26119607374306]}}, {"type": "Feature", "properties": {"norad_id": 33886, "name": "IRIDIUM 33 DEB", "group": "iridium-33-debris", "lat": 53.45577513081129, "lon": -113.39015806450783, "alt_km": 774.471052256552, "timestamp": "2025-12-02T13:52:17.645951+00:00", "meta": {"OBJECT_NAME": "IRIDIUM 33 DEB", "OBJECT_ID": "1997-051BF", "EPOCH": "2025-12-02T06:50:38.057280", "MEAN_MOTION": 14.3603078, "ECCENTRICITY": 0.00120451, "INCLINATION": 86.3832, "RA_OF_ASC_NODE": 71.6286, "ARG_OF_PERICENTER": 281.7629, "MEAN_ANOMALY": 131.7878, "EPHEMERIS_TYPE": 0, "CLASSIFICATION_TYPE": "U", "NORAD_CAT_ID": 33886, "ELEMENT_SET_NO": 999, "REV_AT_EPOCH": 87902, "BSTAR": 0.00028794567, "MEAN_MOTION_DOT": 8.57e-06, "MEAN_MOTION_DDOT": 0}, "tle": {"line1": "1 33886U 97051BF  25336.28516270  .00000857  00000+0  28795-3 0  9993", "line2": "2 33886  86.3832  71.6286 0012045 281.7629 131.7878 14.36030780879020"}}, "geometry": {"type": "Point", "coordinates": [-113.39015806450783, 53.45577513081129]}}, {"type": "Feature", "properties": {"norad_id": 33887, "name": "IRIDIUM 33 DEB", "group": "iridium-33-debris", "lat": 19.700614083227723, "lon": 9.096966574032479, "alt_km": 768.6034055124082, "timestamp": "2025-12-02T13:52:17.645962+00:00", "meta": {"OBJECT_NAME": "IRIDIUM 33 DEB", "OBJECT_ID": "1997-051BG", "EPOCH": "2025-12-02T02:12:48.398112", "MEAN_MOTION": 14.37205512, "ECCENTRICITY": 0.00040393, "INCLINATION": 86.3053, "RA_OF_ASC_NODE": 7.9804, "ARG_OF_PERICENTER": 277.872, "MEAN_ANOMALY": 110.2578, "EPHEMERIS_TYPE": 0, "CLASSIFICATION_TYPE": "U", "NORAD_CAT_ID": 33887, "ELEMENT_SET_NO": 999, "REV_AT_EPOCH": 88012, "BSTAR": 0.00017226113, "MEAN_MOTION_DOT": 5.32e-06, "MEAN_MOTION_DDOT": 0}, "tle": {"line1": "1 33887U 97051BG  25336.09222683  .00000532  00000+0  17226-3 0  9992", "line2": "2 33887  86.3053   7.9804 0004039 277.8720 110.2578 14.37205512880126"}}, "geometry": {"type": "Point", "coordinates": [9.096966574032479, 19.700614083227723]}}, {"type": "Feature", "properties": {"norad_id": 33953, "name": "IRIDIUM 33 DEB", "group": "iridium-33-debris", "lat": -62.967831670098036, "lon": 51.07215708409951, "alt_km": 728.6417627105784, "timestamp": "2025-12-02T13:52:17.645972+00:00", "meta": {"OBJECT_NAME": "IRIDIUM 33 DEB", "OBJECT_ID": "1997-051BN", "EPOCH": "2025-12-02T06:09:33.536160", "MEAN_MOTION": 14.55143385, "ECCENTRICITY": 0.00183972, "INCLINATION": 86.3854, "RA_OF_ASC_NODE": 58.3281, "ARG_OF_PERICENTER": 134.9087, "MEAN_ANOMALY": 279.6133, "EPHEMERIS_TYPE": 0, "CLASSIFICATION_TYPE": "U", "NORAD_CAT_ID": 33953, "ELEMENT_SET_NO": 999, "REV_AT_EPOCH": 88151, "BSTAR": 0.0016111372, "MEAN_MOTION_DOT": 6.995e-05, "MEAN_MOTION_DDOT": 0}, "tle": {"line1": "1 33953U 97051BN  25336.25663815  .00006995  00000+0  16111-2 0  9990", "line2": "2 33953  86.3854  58.3281 0018397 134.9087 279.6133 14.55143385881519"}}, "geometry": {"type": "Point", "coordinates": [51.07215708409951, -62.967831670098036]}}, {"type": "Feature", "properties": {"norad_id": 33960, "name": "IRIDIUM 33 DEB", "group": "iridium-33-debris", "lat": 76.88486297857203, "lon": 97.96389828473684, "alt_km": 604.3220695796108, "timestamp": "2025-12-02T13:52:17.645983+00:00", "meta": {"OBJECT_NAME": "IRIDIUM 33 DEB", "OBJECT_ID": "1997-051BV", "EPOCH": "2025-12-01T21:29:55.792896", "MEAN_MOTION": 14.84270371, "ECCENTRICITY": 0.00069174, "INCLINATION": 86.2527, "RA_OF_ASC_NODE": 294.6233, "ARG_OF_PERICENTER": 77.1368, "MEAN_ANOMALY": 342.5021, "EPHEMERIS_TYPE": 0, "CLASSIFICATION_TYPE": "U", "NORAD_CAT_ID": 33960, "ELEMENT_SET_NO": 999, "REV_AT_EPOCH": 88706, "BSTAR": 0.0035105503, "MEAN_MOTION_DOT": 0.00029537, "MEAN_MOTION_DDOT": 0}, "tle": {"line1": "1 33960U 97051BV  25335.89578464  .00029537  00000+0  35106-2 0  9994", "line2": "2 33960  86.2527 294.6233 0006917  77.1368 342.5021 14.84270371887060"}}, "geometry": {"type": "Point", "coordinates": [97.96389828473684, 76.88486297857203]}}, {"type": "Feature", "properties": {"norad_id": 33966, "name": "IRIDIUM 33 DEB", "group": "iridium-33-debris", "lat": -86.36384002395589, "lon": -32.59028430931666, "alt_km": 731.5094823005247, "timestamp": "2025-12-02T13:52:17.645994+00:00", "meta": {"OBJECT_NAME": "IRIDIUM 33 DEB", "OBJECT_ID": "1997-051CB", "EPOCH": "2025-12-02T06:16:20.926848", "MEAN_MOTION": 14.49520493, "ECCENTRICITY": 0.00062836, "INCLINATION": 86.3934, "RA_OF_ASC_NODE": 50.5231, "ARG_OF_PERICENTER": 226.5231, "MEAN_ANOMALY": 192.6741, "EPHEMERIS_TYPE": 0, "CLASSIFICATION_TYPE": "U", "NORAD_CAT_ID": 33966, "ELEMENT_SET_NO": 999, "REV_AT_EPOCH": 88290, "BSTAR": 0.00078491727, "MEAN_MOTION_DOT": 3.028e-05, "MEAN_MOTION_DDOT": 0}, "tle": {"line1": "1 33966U 97051CB  25336.26135332  .00003028  00000+0  78492-3 0  9998", "line2": "2 33966  86.3934  50.5231 0006283 226.5231 192.6741 14.49520493882906"}}, "geometry": {"type": "Point", "coordinates": [-32.59028430931666, -86.36384002395589]}}, {"type": "Feature", "properties": {"norad_id": 34071, "name": "IRIDIUM 33 DEB", "group": "iridium-33-debris", "lat": -18.569926271981604, "lon": 21.015134166483392, "alt_km": 738.7658005447338, "timestamp": "2025-12-02T13:52:17.646005+00:00", "meta": {"OBJECT_NAME": "IRIDIUM 33 DEB", "OBJECT_ID": "1997-051CE", "EPOCH": "2025-12-02T04:00:56.713248", "MEAN_MOTION": 14.49386618, "ECCENTRICITY": 0.00094093, "INCLINATION": 86.3469, "RA_OF_ASC_NODE": 22.4233, "ARG_OF_PERICENTER": 136.3059, "MEAN_ANOMALY": 223.8891, "EPHEMERIS_TYPE": 0, "CLASSIFICATION_TYPE": "U", "NORAD_CAT_ID": 34071, "ELEMENT_SET_NO": 999, "REV_AT_EPOCH": 88181, "BSTAR": 0.00071636991, "MEAN_MOTION_DOT": 2.758e-05, "MEAN_MOTION_DDOT": 0}, "tle": {"line1": "1 34071U 97051CE  25336.16732307  .00002758  00000+0  71637-3 0  9993", "line2": "2 34071  86.3469  22.4233 0009409 136.3059 223.8891 14.49386618881817"}}, "geometry": {"type": "Point", "coordinates": [21.015134166483392, -18.569926271981604]}}]}